1 45161U 20008AG  22365.49366792 -.00000034  00000-0 -13232-3 0  9994
2 45161  87.8811 287.4291 0001914  78.6070 281.5272 13.10371239142923
1 45161U 20008AG  22365.72274168 -.00000051  00000-0 -18157-3 0  9995
2 45161  87.8811 287.3834 0001919  78.5418 281.5925 13.10370702142957
1 45161U 20008AG  23001.33360299  .00000133  00000-0  34396-3 0  9993
2 45161  87.8812 287.2617 0001899  78.1202 282.0139 13.10371390143037
1 45161U 20008AG  23001.71539266  .00000129  00000-0  33354-3 0  9995
2 45161  87.8813 287.1857 0001892  77.9479 282.1860 13.10370406143083
1 45161U 20008AG  23002.02082339  .00000220  00000-0  59428-3 0  9996
2 45161  87.8813 287.1248 0001889  77.8940 282.2399 13.10370696143871
1 45161U 20008AG  23002.55532736  .00000268  00000-0  73105-3 0  9995
2 45161  87.8814 287.0183 0001896  77.6610 282.4729 13.10371180143192
1 45161U 20008AG  23003.47161905  .00000566  00000-0  15850-2 0  9996
2 45161  87.8815 286.8358 0001893  77.3816 282.7523 13.10371888143310
1 45161U 20008AG  23003.47161905  .00000566  00000-0  15850-2 0  9996
2 45161  87.8815 286.8358 0001893  77.3816 282.7523 13.10371888144063
1 45161U 20008AG  23004.54062564  .00000600  00000-0  16817-2 0  9999
2 45161  87.8815 286.6228 0001887  77.1158 283.0180 13.10372798143453
1 45161U 20008AG  23004.54062564  .00000600  00000-0  16817-2 0  9999
2 45161  87.8815 286.6228 0001887  77.1158 283.0180 13.10372798144207
1 45161U 20008AG  23005.53327307  .00000628  00000-0  17633-2 0  9995
2 45161  87.8817 286.4252 0001892  76.4209 283.7129 13.10374060143583
1 45161U 20008AG  23006.52591895  .00000628  00000-0  17617-2 0  9992
2 45161  87.8818 286.2275 0001886  76.0530 284.0807 13.10375293143714
1 45161U 20008AG  23006.52591895  .00000628  00000-0  17617-2 0  9992
2 45161  87.8818 286.2275 0001886  76.0530 284.0807 13.10375293144467
1 45161U 20008AG  23007.13677714  .00000670  00000-0  18822-2 0  9991
2 45161  87.8820 286.1058 0001905  75.9160 284.2179 13.10376132143799
1 45161U 20008AG  23007.51856370  .00000559  00000-0  15644-2 0  9995
2 45161  87.8820 286.0298 0001903  75.7434 284.3904 13.10376286143847
1 45161U 20008AG  23008.12942127  .00000505  00000-0  14095-2 0  9999
2 45161  87.8821 285.9082 0001884  74.9764 285.1571 13.10376808144673
1 45161U 20008AG  23008.20577824  .00000519  00000-0  14508-2 0  9990
2 45161  87.8822 285.8930 0001885  74.9428 285.1908 13.10377047143931
1 45161U 20008AG  23009.50384984  .00000213  00000-0  57379-3 0  9992
2 45161  87.8821 285.6345 0001889  74.9793 285.1544 13.10377733144105
1 45161U 20008AG  23009.50384984  .00000213  00000-0  57379-3 0  9992
2 45161  87.8821 285.6345 0001889  74.9793 285.1544 13.10377733144857
1 45161U 20008AG  23010.49649210  .00000040  00000-0  78812-4 0  9992
2 45161  87.8821 285.4368 0001881  74.5002 285.6333 13.10377705144233
1 45161U 20008AG  23010.72556377 -.00000068  00000-0 -23086-3 0  9993
2 45161  87.8821 285.3912 0001885  74.4532 285.6804 13.10377538144268
1 45161U 20008AG  23010.72556377 -.00000068  00000-0 -23086-3 0  9993
2 45161  87.8821 285.3912 0001885  74.4532 285.6804 13.10377538145012
1 45161U 20008AG  23011.48913468 -.00000214  00000-0 -65069-3 0  9995
2 45161  87.8822 285.2391 0001881  74.4063 285.7272 13.10377324144368
1 45161U 20008AG  23011.79456381 -.00000402  00000-0 -11880-2 0  9995
2 45161  87.8822 285.1784 0001883  74.2123 285.9212 13.10376973144400
1 45161U 20008AG  23011.79456381 -.00000402  00000-0 -11880-2 0  9995
2 45161  87.8822 285.1784 0001883  74.2123 285.9212 13.10376973145153
1 45161U 20008AG  23012.71085129 -.00000605  00000-0 -17701-2 0  9999
2 45161  87.8818 284.9960 0001884  73.9252 286.2083 13.10375261144520
1 45161U 20008AG  23013.01628037 -.00000666  00000-0 -19429-2 0  9990
2 45161  87.8818 284.9351 0001883  74.0300 286.1034 13.10375084145315
1 45161U 20008AG  23013.47442374 -.00000638  00000-0 -18628-2 0  9997
2 45161  87.8817 284.8439 0001888  74.2413 285.8923 13.10374973144624
1 45161U 20008AG  23014.46707041 -.00000639  00000-0 -18666-2 0  9995
2 45161  87.8817 284.6459 0001878  73.9343 286.1991 13.10373091145508
1 45161U 20008AG  23015.45971819 -.00000636  00000-0 -18593-2 0  9997
2 45161  87.8814 284.4483 0001865  73.8791 286.2541 13.10371875144882
1 45161U 20008AG  23015.76514771 -.00000572  00000-0 -16753-2 0  9996
2 45161  87.8814 284.3874 0001850  73.6619 286.4712 13.10372366144929
1 45161U 20008AG  23015.76514771 -.00000572  00000-0 -16753-2 0  9996
2 45161  87.8814 284.3874 0001850  73.6619 286.4712 13.10372366145672
1 45161U 20008AG  23016.45236643 -.00000484  00000-0 -14235-2 0  9997
2 45161  87.8812 284.2506 0001827  73.2744 286.8584 13.10371397145012
1 45161U 20008AG  23016.75779750 -.00000546  00000-0 -15997-2 0  9996
2 45161  87.8811 284.1898 0001817  73.0435 287.0891 13.10370887145059
1 45161U 20008AG  23017.13958578 -.00000439  00000-0 -12953-2 0  9996
2 45161  87.8811 284.1137 0001811  73.0943 287.0383 13.10370733145857
1 45161U 20008AG  23017.44501663 -.00000387  00000-0 -11437-2 0  9997
2 45161  87.8809 284.0529 0001809  72.8882 287.2443 13.10370475145148
1 45161U 20008AG  23018.43766766 -.00000239  00000-0 -72102-3 0  9997
2 45161  87.8807 283.8553 0001814  73.0972 287.0354 13.10370005145271
1 45161U 20008AG  23018.43766766 -.00000239  00000-0 -72102-3 0  9997
2 45161  87.8807 283.8553 0001814  73.0972 287.0354 13.10370005146025
1 45161U 20008AG  23018.81945615 -.00000132  00000-0 -41323-3 0  9994
2 45161  87.8808 283.7792 0001788  72.5172 287.6150 13.10370179145320
1 45161U 20008AG  23019.43031953 -.00000018  00000-0 -88619-4 0  9997
2 45161  87.8808 283.6574 0001806  72.2353 287.8972 13.10369119145401
1 45161U 20008AG  23020.11753945  .00000075  00000-0  17805-3 0  9995
2 45161  87.8809 283.5204 0001767  71.6187 288.5133 13.10369710146242
1 45161U 20008AG  23020.27025465  .00000155  00000-0  40893-3 0  9993
2 45161  87.8810 283.4900 0001763  71.5535 288.5784 13.10370099145511
1 45161U 20008AG  23021.26290571  .00000381  00000-0  10561-2 0  9994
2 45161  87.8811 283.2923 0001759  72.0167 288.1152 13.10370567146399
1 45161U 20008AG  23022.63734401  .00000665  00000-0  18695-2 0  9992
2 45161  87.8811 283.0183 0001761  73.4400 286.6920 13.10372028146573
1 45161U 20008AG  23024.08813813  .00000793  00000-0  22363-2 0  9997
2 45161  87.8811 282.7290 0001765  73.6109 286.5212 13.10373292146768
1 45161U 20008AG  23025.46257289  .00000575  00000-0  16111-2 0  9991
2 45161  87.8810 282.4553 0001762  72.9366 287.1954 13.10373761146198
1 45161U 20008AG  23025.46257289  .00000575  00000-0  16111-2 0  9991
2 45161  87.8810 282.4553 0001762  72.9366 287.1954 13.10373761146941
1 45161U 20008AG  23025.76800064  .00000662  00000-0  18609-2 0  9990
2 45161  87.8809 282.3946 0001729  72.1622 287.9693 13.10375626146236
1 45161U 20008AG  23026.60793071  .00000519  00000-0  14503-2 0  9993
2 45161  87.8810 282.2273 0001691  71.6684 288.4627 13.10376133146349
1 45161U 20008AG  23026.76064561  .00000449  00000-0  12501-2 0  9993
2 45161  87.8809 282.1969 0001694  71.1319 288.9992 13.10375881147116
1 45161U 20008AG  23027.60057473  .00000286  00000-0  78250-3 0  9994
2 45161  87.8807 282.0298 0001693  69.7190 290.4119 13.10376544146471
1 45161U 20008AG  23027.75328876  .00000173  00000-0  46004-3 0  9995
2 45161  87.8807 281.9993 0001687  69.1327 290.9981 13.10377380146493
1 45161U 20008AG  23028.13507460  .00000252  00000-0  68595-3 0  9993
2 45161  87.8806 281.9228 0001698  67.9089 292.2219 13.10376779147295
1 45161U 20008AG  23028.21143144  .00000289  00000-0  79224-3 0  9998
2 45161  87.8805 281.9077 0001701  68.3228 291.8080 13.10377015146554
1 45161U 20008AG  23028.74593161  .00000130  00000-0  33637-3 0  9997
2 45161  87.8805 281.8013 0001698  68.9419 291.1890 13.10376985146621
1 45161U 20008AG  23029.20407403  .00000057  00000-0  12804-3 0  9993
2 45161  87.8804 281.7101 0001682  69.2359 290.8949 13.10377278147434
1 45161U 20008AG  23029.73857428 -.00000107  00000-0 -34267-3 0  9992
2 45161  87.8804 281.6035 0001688  69.6318 290.4990 13.10376906146757
1 45161U 20008AG  23030.19671675 -.00000156  00000-0 -48177-3 0  9991
2 45161  87.8804 281.5121 0001690  69.3052 290.8256 13.10377188146816
1 45161U 20008AG  23030.96028914 -.00000419  00000-0 -12371-2 0  9996
2 45161  87.8804 281.3600 0001680  69.6662 290.4646 13.10376317146918
1 45161U 20008AG  23030.96028914 -.00000419  00000-0 -12371-2 0  9996
2 45161  87.8804 281.3600 0001680  69.6662 290.4646 13.10376317147661
1 45161U 20008AG  23031.95293443 -.00000641  00000-0 -18732-2 0  9991
2 45161  87.8803 281.1621 0001681  69.8023 290.3285 13.10374343147042
